MALLIGYONG-1            
1 58400U 23179A   23338.11322779  .00006908  00000+0  31059-3 0  9993
2 58400  97.4262 222.7260 0014382 231.3710 128.6239 15.21351050  1909
